[
    {
        "Altitude(m)": 607911.0256106631,
        "Argument of Periapsis(deg)": 0.0,
        "Eccentricity": 0.0,
        "Inclination(deg)": 60.0,
        "Latitude(deg)": -14.293037668736112,
        "Longitude(deg)": -91.55735169842201,
        "Mean Anomaly(deg)": -163.6364,
        "RAAN(deg)": 180.0,
        "Satellite Name": "Test1 804",
        "Satellite Number": 804,
        "Semi-Major Axis(m)": 6980739.136638005,
        "Time(s)": 0
    },
    {
        "Altitude(m)": 608060.2597656559,
        "Argument of Periapsis(deg)": 0.00010418945913296404,
        "Eccentricity": 0.0,
        "Inclination(deg)": 60.0,
        "Latitude(deg)": -14.826699048650868,
        "Longitude(deg)": -91.26874210468091,
        "Mean Anomaly(deg)": -163.01629385453816,
        "RAAN(deg)": 179.99957995086024,
        "Satellite Name": "Test1 804",
        "Satellite Number": 804,
        "Semi-Major Axis(m)": 6980739.136638005,
        "Time(s)": 10
    }
]